[{"OBJECT_NAME":"IRIDIUM 140","OBJECT_ID":"2018-030D","EPOCH":"2026-03-09T17:10:03.364608","MEAN_MOTION":14.34217721,"ECCENTRICITY":0.00019229,"INCLINATION":86.4003,"RA_OF_ASC_NODE":332.0359,"ARG_OF_PERICENTER":85.7585,"MEAN_ANOMALY":274.3831,"EPHEMERIS_TYPE":0,"CLASSIFICATION_TYPE":"U","NORAD_CAT_ID":43252,"ELEMENT_SET_NO":999,"REV_AT_EPOCH":41593,"BSTAR":-8.82061e-7,"MEAN_MOTION_DOT":1.7e-7,"MEAN_MOTION_DDOT":0},{"OBJECT_NAME":"COSMOS 2251 DEB","OBJECT_ID":"1993-036BT","EPOCH":"2026-03-09T22:44:00.919104","MEAN_MOTION":14.52927931,"ECCENTRICITY":0.00841824,"INCLINATION":74.0629,"RA_OF_ASC_NODE":245.7917,"ARG_OF_PERICENTER":269.0334,"MEAN_ANOMALY":207.5034,"EPHEMERIS_TYPE":0,"CLASSIFICATION_TYPE":"U","NORAD_CAT_ID":33826,"ELEMENT_SET_NO":999,"REV_AT_EPOCH":89035,"BSTAR":0.0021588922,"MEAN_MOTION_DOT":9.302e-5,"MEAN_MOTION_DDOT":0}]
